{
  "type": "FeatureCollection",
  "features": [
    {
      "type": "Feature",
      "properties": {
        "norad_id": 48859,
        "name": "GPS BIII-5  (PRN 11)",
        "group": "gnss",
        "lat": -50.38206422651724,
        "lon": -142.9820575996464,
        "alt_km": 20125.650349356943,
        "timestamp": "2025-12-09T21:34:11.650671+00:00",
        "meta_object_name": "GPS BIII-5  (PRN 11)",
        "meta_object_id": "2021-054A",
        "meta_epoch": "2025-12-08T04:14:32.423424",
        "meta_mean_motion": 2.00553628,
        "meta_eccentricity": 0.0024681,
        "meta_inclination": 55.2581,
        "meta_ra_of_asc_node": 340.1367,
        "meta_arg_of_pericenter": 233.3965,
        "meta_mean_anomaly": 212.8622,
        "meta_ephemeris_type": 0,
        "meta_classification_type": "U",
        "meta_norad_cat_id": 48859,
        "meta_element_set_no": 999,
        "meta_rev_at_epoch": 3292,
        "meta_bstar": 0,
        "meta_mean_motion_dot": -8.6e-07,
        "meta_mean_motion_ddot": 0,
        "tle_line1": "1 48859U 21054A   25342.17676416 -.00000086  00000+0  00000+0 0  9993",
        "tle_line2": "2 48859  55.2581 340.1367 0024681 233.3965 212.8622  2.00553628 32928"
      },
      "geometry": {
        "type": "Point",
        "coordinates": [
          -142.9820575996464,
          -50.38206422651724
        ]
      }
    },
    {
      "type": "Feature",
      "properties": {
        "norad_id": 49336,
        "name": "QZS-1R (QZSS/PRN 196)",
        "group": "gnss",
        "lat": 36.96381903493486,
        "lon": 178.02570899152815,
        "alt_km": 38949.75374624835,
        "timestamp": "2025-12-09T21:34:11.650685+00:00",
        "meta_object_name": "QZS-1R (QZSS/PRN 196)",
        "meta_object_id": "2021-096A",
        "meta_epoch": "2025-12-08T14:42:38.556864",
        "meta_mean_motion": 1.00258569,
        "meta_eccentricity": 0.07543626,
        "meta_inclination": 37.0693,
        "meta_ra_of_asc_node": 82.4203,
        "meta_arg_of_pericenter": 271.2519,
        "meta_mean_anomaly": 79.6136,
        "meta_ephemeris_type": 0,
        "meta_classification_type": "U",
        "meta_norad_cat_id": 49336,
        "meta_element_set_no": 999,
        "meta_rev_at_epoch": 1509,
        "meta_bstar": 0,
        "meta_mean_motion_dot": -2.65e-06,
        "meta_mean_motion_ddot": 0,
        "tle_line1": "1 49336U 21096A   25342.61294626 -.00000265  00000+0  00000+0 0  9997",
        "tle_line2": "2 49336  37.0693  82.4203 0754362 271.2519  79.6136  1.00258569 15091"
      },
      "geometry": {
        "type": "Point",
        "coordinates": [
          178.02570899152815,
          36.96381903493486
        ]
      }
    },
    {
      "type": "Feature",
      "properties": {
        "norad_id": 49809,
        "name": "GSAT0223 (GALILEO 27)",
        "group": "gnss",
        "lat": -39.69719984113835,
        "lon": -160.87175334433843,
        "alt_km": 23213.889617323075,
        "timestamp": "2025-12-09T21:34:11.650697+00:00",
        "meta_object_name": "GSAT0223 (GALILEO 27)",
        "meta_object_id": "2021-116A",
        "meta_epoch": "2025-12-08T12:32:15.823104",
        "meta_mean_motion": 1.70475635,
        "meta_eccentricity": 0.00046796,
        "meta_inclination": 57.2201,
        "meta_ra_of_asc_node": 346.8263,
        "meta_arg_of_pericenter": 251.0345,
        "meta_mean_anomaly": 213.7248,
        "meta_ephemeris_type": 0,
        "meta_classification_type": "U",
        "meta_norad_cat_id": 49809,
        "meta_element_set_no": 999,
        "meta_rev_at_epoch": 2493,
        "meta_bstar": 0,
        "meta_mean_motion_dot": -8.6e-07,
        "meta_mean_motion_ddot": 0,
        "tle_line1": "1 49809U 21116A   25342.52240536 -.00000086  00000+0  00000+0 0  9997",
        "tle_line2": "2 49809  57.2201 346.8263 0004679 251.0345 213.7248  1.70475635 24930"
      },
      "geometry": {
        "type": "Point",
        "coordinates": [
          -160.87175334433843,
          -39.69719984113835
        ]
      }
    },
    {
      "type": "Feature",
      "properties": {
        "norad_id": 49810,
        "name": "GSAT0224 (GALILEO 28)",
        "group": "gnss",
        "lat": -14.996802850259805,
        "lon": -23.15466582693426,
        "alt_km": 23223.66546599415,
        "timestamp": "2025-12-09T21:34:11.650708+00:00",
        "meta_object_name": "GSAT0224 (GALILEO 28)",
        "meta_object_id": "2021-116B",
        "meta_epoch": "2025-12-07T13:56:35.698272",
        "meta_mean_motion": 1.7047563,
        "meta_eccentricity": 0.00040182,
        "meta_inclination": 57.2213,
        "meta_ra_of_asc_node": 346.8506,
        "meta_arg_of_pericenter": 254.5241,
        "meta_mean_anomaly": 105.0474,
        "meta_ephemeris_type": 0,
        "meta_classification_type": "U",
        "meta_norad_cat_id": 49810,
        "meta_element_set_no": 999,
        "meta_rev_at_epoch": 2493,
        "meta_bstar": 0,
        "meta_mean_motion_dot": -8.4e-07,
        "meta_mean_motion_ddot": 0,
        "tle_line1": "1 49810U 21116B   25341.58096873 -.00000084  00000+0  00000+0 0  9995",
        "tle_line2": "2 49810  57.2213 346.8506 0004018 254.5241 105.0474  1.70475630 24934"
      },
      "geometry": {
        "type": "Point",
        "coordinates": [
          -23.15466582693426,
          -14.996802850259805
        ]
      }
    },
    {
      "type": "Feature",
      "properties": {
        "norad_id": 52984,
        "name": "COSMOS 2557 (706K)",
        "group": "gnss",
        "lat": -60.75724663897662,
        "lon": -97.69477485355968,
        "alt_km": 19101.641268452488,
        "timestamp": "2025-12-09T21:34:11.650719+00:00",
        "meta_object_name": "COSMOS 2557 (706K)",
        "meta_object_id": "2022-075A",
        "meta_epoch": "2025-12-07T04:21:00.419904",
        "meta_mean_motion": 2.13101754,
        "meta_eccentricity": 0.00137049,
        "meta_inclination": 64.4129,
        "meta_ra_of_asc_node": 321.247,
        "meta_arg_of_pericenter": 276.9,
        "meta_mean_anomaly": 82.939,
        "meta_ephemeris_type": 0,
        "meta_classification_type": "U",
        "meta_norad_cat_id": 52984,
        "meta_element_set_no": 999,
        "meta_rev_at_epoch": 2662,
        "meta_bstar": 0,
        "meta_mean_motion_dot": -5.2e-07,
        "meta_mean_motion_ddot": 0,
        "tle_line1": "1 52984U 22075A   25341.18125486 -.00000052  00000+0  00000+0 0  9990",
        "tle_line2": "2 52984  64.4129 321.2470 0013704 276.9000  82.9390  2.13101754 26625"
      },
      "geometry": {
        "type": "Point",
        "coordinates": [
          -97.69477485355968,
          -60.75724663897662
        ]
      }
    },
    {
      "type": "Feature",
      "properties": {
        "norad_id": 54031,
        "name": "COSMOS 2559 (707K)",
        "group": "gnss",
        "lat": 53.703963914686916,
        "lon": 2.0026019398092867,
        "alt_km": 19143.005935852845,
        "timestamp": "2025-12-09T21:34:11.650729+00:00",
        "meta_object_name": "COSMOS 2559 (707K)",
        "meta_object_id": "2022-130A",
        "meta_epoch": "2025-12-09T08:19:17.567904",
        "meta_mean_motion": 2.13101276,
        "meta_eccentricity": 0.00118885,
        "meta_inclination": 64.3842,
        "meta_ra_of_asc_node": 321.2605,
        "meta_arg_of_pericenter": 192.5851,
        "meta_mean_anomaly": 167.383,
        "meta_ephemeris_type": 0,
        "meta_classification_type": "U",
        "meta_norad_cat_id": 54031,
        "meta_element_set_no": 999,
        "meta_rev_at_epoch": 2464,
        "meta_bstar": 0,
        "meta_mean_motion_dot": -5.2e-07,
        "meta_mean_motion_ddot": 0,
        "tle_line1": "1 54031U 22130A   25343.34673111 -.00000052  00000+0  00000+0 0  9990",
        "tle_line2": "2 54031  64.3842 321.2605 0011888 192.5851 167.3830  2.13101276 24645"
      },
      "geometry": {
        "type": "Point",
        "coordinates": [
          2.0026019398092867,
          53.703963914686916
        ]
      }
    },
    {
      "type": "Feature",
      "properties": {
        "norad_id": 54377,
        "name": "COSMOS 2564 (761)",
        "group": "gnss",
        "lat": -2.687939335480666,
        "lon": 20.26726973853034,
        "alt_km": 19110.38801290687,
        "timestamp": "2025-12-09T21:34:11.650740+00:00",
        "meta_object_name": "COSMOS 2564 (761)",
        "meta_object_id": "2022-161A",
        "meta_epoch": "2025-12-09T04:34:58.856736",
        "meta_mean_motion": 2.13102019,
        "meta_eccentricity": 0.00086439,
        "meta_inclination": 64.7379,
        "meta_ra_of_asc_node": 199.0169,
        "meta_arg_of_pericenter": 205.3114,
        "meta_mean_anomaly": 154.7201,
        "meta_ephemeris_type": 0,
        "meta_classification_type": "U",
        "meta_norad_cat_id": 54377,
        "meta_element_set_no": 999,
        "meta_rev_at_epoch": 2358,
        "meta_bstar": 0,
        "meta_mean_motion_dot": 4.4e-07,
        "meta_mean_motion_ddot": 0,
        "tle_line1": "1 54377U 22161A   25343.19095899  .00000044  00000+0  00000+0 0  9991",
        "tle_line2": "2 54377  64.7379 199.0169 0008643 205.3114 154.7201  2.13102019 23583"
      },
      "geometry": {
        "type": "Point",
        "coordinates": [
          20.26726973853034,
          -2.687939335480666
        ]
      }
    }
  ]
}